[{"OBJECT_NAME":"STARLINK-36640","OBJECT_ID":"2026-018M","EPOCH":"2026-03-09T17:46:55.316928","MEAN_MOTION":15.75204388,"ECCENTRICITY":0.00017124,"INCLINATION":97.2835,"RA_OF_ASC_NODE":134.5177,"ARG_OF_PERICENTER":79.5478,"MEAN_ANOMALY":280.598,"EPHEMERIS_TYPE":0,"CLASSIFICATION_TYPE":"U","NORAD_CAT_ID":67600,"ELEMENT_SET_NO":999,"REV_AT_EPOCH":731,"BSTAR":0.0015232884,"MEAN_MOTION_DOT":0.00233549,"MEAN_MOTION_DDOT":0},{"OBJECT_NAME":"ATLAS 2AS CENTAUR R\/B","OBJECT_ID":"2004-003B","EPOCH":"2026-03-08T04:38:45.070944","MEAN_MOTION":3.70518379,"ECCENTRICITY":0.62116966,"INCLINATION":12.731,"RA_OF_ASC_NODE":325.0572,"ARG_OF_PERICENTER":180.441,"MEAN_ANOMALY":178.5074,"EPHEMERIS_TYPE":0,"CLASSIFICATION_TYPE":"U","NORAD_CAT_ID":28155,"ELEMENT_SET_NO":999,"REV_AT_EPOCH":24420,"BSTAR":0.0023407285,"MEAN_MOTION_DOT":6.9e-5,"MEAN_MOTION_DDOT":0}]
